{"type": "FeatureCollection", "features": [ {"type": "Feature", "properties": {"norad_id": 52912, "name": "GAOFEN-12 03", "group": "resource", "lat": -53.630635284062464, "lon": -109.01659812128399, "alt_km": 637.976049859506, "timestamp": "2025-12-18T23:35:48.705045+00:00", "meta": {"OBJECT_NAME": "GAOFEN-12 03", "OBJECT_ID": "2022-069A", "EPOCH": "2025-12-18T15:43:37.457760", "MEAN_MOTION": 14.7962325, "ECCENTRICITY": 0.00020495, "INCLINATION": 97.8488, "RA_OF_ASC_NODE": 239.8672, "ARG_OF_PERICENTER": 55.0226, "MEAN_ANOMALY": 305.1178, "EPHEMERIS_TYPE": 0, "CLASSIFICATION_TYPE": "U", "NORAD_CAT_ID": 52912, "ELEMENT_SET_NO": 999, "REV_AT_EPOCH": 18791, "BSTAR": 0.00015560753, "MEAN_MOTION_DOT": 1.116e-05, "MEAN_MOTION_DDOT": 0}, "tle": {"line1": "1 52912U 22069A   25352.65529465  .00001116  00000+0  15561-3 0  9996", "line2": "2 52912  97.8488 239.8672 0002049  55.0226 305.1178 14.79623250187917"}}, "geometry": {"type": "Point", "coordinates": [-109.01659812128399, -53.630635284062464]}}, {"type": "Feature", "properties": {"norad_id": 54754, "name": "SWOT", "group": "resource", "lat": -57.1830681472941, "lon": -101.36654144242657, "alt_km": 900.3575360294644, "timestamp": "2025-12-18T23:35:48.705056+00:00", "meta": {"OBJECT_NAME": "SWOT", "OBJECT_ID": "2022-173A", "EPOCH": "2025-12-18T13:35:25.801440", "MEAN_MOTION": 14.00167724, "ECCENTRICITY": 3.673e-05, "INCLINATION": 77.6108, "RA_OF_ASC_NODE": 279.1246, "ARG_OF_PERICENTER": 96.8093, "MEAN_ANOMALY": 263.3101, "EPHEMERIS_TYPE": 0, "CLASSIFICATION_TYPE": "U", "NORAD_CAT_ID": 54754, "ELEMENT_SET_NO": 999, "REV_AT_EPOCH": 15387, "BSTAR": 4.2663083e-05, "MEAN_MOTION_DOT": 6e-07, "MEAN_MOTION_DDOT": 0}, "tle": {"line1": "1 54754U 22173A   25352.56627085  .00000060  00000+0  42663-4 0  9996", "line2": "2 54754  77.6108 279.1246 0000367  96.8093 263.3101 14.00167724153870"}}, "geometry": {"type": "Point", "coordinates": [-101.36654144242657, -57.1830681472941]}}, {"type": "Feature", "properties": {"norad_id": 57654, "name": "GAOFEN-12 04", "group": "resource", "lat": 61.4649305017815, "lon": 103.46536158390595, "alt_km": 623.6064300969301, "timestamp": "2025-12-18T23:35:48.705066+00:00", "meta": {"OBJECT_NAME": "GAOFEN-12 04", "OBJECT_ID": "2023-123A", "EPOCH": "2025-12-18T14:57:12.338208", "MEAN_MOTION": 14.79716826, "ECCENTRICITY": 0.00012383, "INCLINATION": 97.9126, "RA_OF_ASC_NODE": 268.291, "ARG_OF_PERICENTER": 75.7468, "MEAN_ANOMALY": 284.3881, "EPHEMERIS_TYPE": 0, "CLASSIFICATION_TYPE": "U", "NORAD_CAT_ID": 57654, "ELEMENT_SET_NO": 999, "REV_AT_EPOCH": 12592, "BSTAR": 0.00015027082, "MEAN_MOTION_DOT": 1.078e-05, "MEAN_MOTION_DDOT": 0}, "tle": {"line1": "1 57654U 23123A   25352.62305947  .00001078  00000+0  15027-3 0  9994", "line2": "2 57654  97.9126 268.2910 0001238  75.7468 284.3881 14.79716826125926"}}, "geometry": {"type": "Point", "coordinates": [103.46536158390595, 61.4649305017815]}}, {"type": "Feature", "properties": {"norad_id": 59065, "name": "PARS 1", "group": "resource", "lat": 82.51224798556102, "lon": -130.05785593269, "alt_km": 428.7306194129069, "timestamp": "2025-12-18T23:35:48.705077+00:00", "meta": {"OBJECT_NAME": "PARS 1", "OBJECT_ID": "2024-039Q", "EPOCH": "2025-12-18T15:24:52.924608", "MEAN_MOTION": 15.41105439, "ECCENTRICITY": 0.00121876, "INCLINATION": 97.4635, "RA_OF_ASC_NODE": 323.7006, "ARG_OF_PERICENTER": 54.5574, "MEAN_ANOMALY": 305.6809, "EPHEMERIS_TYPE": 0, "CLASSIFICATION_TYPE": "U", "NORAD_CAT_ID": 59065, "ELEMENT_SET_NO": 999, "REV_AT_EPOCH": 10079, "BSTAR": 0.00024065835, "MEAN_MOTION_DOT": 9.897e-05, "MEAN_MOTION_DDOT": 0}, "tle": {"line1": "1 59065U 24039Q   25352.64227922  .00009897  00000+0  24066-3 0  9997", "line2": "2 59065  97.4635 323.7006 0012187  54.5574 305.6809 15.41105439100792"}}, "geometry": {"type": "Point", "coordinates": [-130.05785593269, 82.51224798556102]}}, {"type": "Feature", "properties": {"norad_id": 59371, "name": "RESURS-P 4", "group": "resource", "lat": 31.469215871824627, "lon": -65.28709412244676, "alt_km": 467.0936839106789, "timestamp": "2025-12-18T23:35:48.705087+00:00", "meta": {"OBJECT_NAME": "RESURS-P 4", "OBJECT_ID": "2024-061A", "EPOCH": "2025-12-18T14:03:14.317632", "MEAN_MOTION": 15.32130896, "ECCENTRICITY": 0.00011052, "INCLINATION": 97.2551, "RA_OF_ASC_NODE": 298.7955, "ARG_OF_PERICENTER": 58.5672, "MEAN_ANOMALY": 301.5678, "EPHEMERIS_TYPE": 0, "CLASSIFICATION_TYPE": "U", "NORAD_CAT_ID": 59371, "ELEMENT_SET_NO": 999, "REV_AT_EPOCH": 9610, "BSTAR": 0.00011199101, "MEAN_MOTION_DOT": 3.398e-05, "MEAN_MOTION_DDOT": 0}, "tle": {"line1": "1 59371U 24061A   25352.58558238  .00003398  00000+0  11199-3 0  9995", "line2": "2 59371  97.2551 298.7955 0001105  58.5672 301.5678 15.32130896 96105"}}, "geometry": {"type": "Point", "coordinates": [-65.28709412244676, 31.469215871824627]}}, {"type": "Feature", "properties": {"norad_id": 59625, "name": "LEGION 1", "group": "resource", "lat": -81.88001486908428, "lon": 179.74332731330293, "alt_km": 521.3354356432556, "timestamp": "2025-12-18T23:35:48.705097+00:00", "meta": {"OBJECT_NAME": "LEGION 1", "OBJECT_ID": "2024-081A", "EPOCH": "2025-12-18T11:20:17.024928", "MEAN_MOTION": 15.16536027, "ECCENTRICITY": 0.00036867, "INCLINATION": 97.5214, "RA_OF_ASC_NODE": 67.0623, "ARG_OF_PERICENTER": 291.8467, "MEAN_ANOMALY": 68.2373, "EPHEMERIS_TYPE": 0, "CLASSIFICATION_TYPE": "U", "NORAD_CAT_ID": 59625, "ELEMENT_SET_NO": 999, "REV_AT_EPOCH": 9014, "BSTAR": 0.00021150527, "MEAN_MOTION_DOT": 4.057e-05, "MEAN_MOTION_DDOT": 0}, "tle": {"line1": "1 59625U 24081A   25352.47241927  .00004057  00000+0  21151-3 0  9993", "line2": "2 59625  97.5214  67.0623 0003686 291.8467  68.2373 15.16536027 90140"}}, "geometry": {"type": "Point", "coordinates": [179.74332731330293, -81.88001486908428]}}, {"type": "Feature", "properties": {"norad_id": 59626, "name": "LEGION 2", "group": "resource", "lat": 81.8957831920927, "lon": -0.4518221199437586, "alt_km": 512.6974186710722, "timestamp": "2025-12-18T23:35:48.705107+00:00", "meta": {"OBJECT_NAME": "LEGION 2", "OBJECT_ID": "2024-081B", "EPOCH": "2025-12-18T15:17:48.258240", "MEAN_MOTION": 15.16548918, "ECCENTRICITY": 0.0005621, "INCLINATION": 97.5216, "RA_OF_ASC_NODE": 67.3134, "ARG_OF_PERICENTER": 267.9218, "MEAN_ANOMALY": 92.1371, "EPHEMERIS_TYPE": 0, "CLASSIFICATION_TYPE": "U", "NORAD_CAT_ID": 59626, "ELEMENT_SET_NO": 999, "REV_AT_EPOCH": 9017, "BSTAR": 0.00021688922, "MEAN_MOTION_DOT": 4.165e-05, "MEAN_MOTION_DDOT": 0}, "tle": {"line1": "1 59626U 24081B   25352.63736410  .00004165  00000+0  21689-3 0  9994", "line2": "2 59626  97.5216  67.3134 0005621 267.9218  92.1371 15.16548918 90171"}}, "geometry": {"type": "Point", "coordinates": [-0.4518221199437586, 81.8957831920927]}}, {"type": "Feature", "properties": {"norad_id": 60182, "name": "ALOS-4 (DAICHI-4)", "group": "resource", "lat": -7.371923892183475, "lon": 88.77358372850271, "alt_km": 635.2146155663968, "timestamp": "2025-12-18T23:35:48.705118+00:00", "meta": {"OBJECT_NAME": "ALOS-4 (DAICHI-4)", "OBJECT_ID": "2024-123A", "EPOCH": "2025-12-18T13:53:28.651776", "MEAN_MOTION": 14.79470622, "ECCENTRICITY": 0.00013805, "INCLINATION": 97.9224, "RA_OF_ASC_NODE": 87.3427, "ARG_OF_PERICENTER": 101.7265, "MEAN_ANOMALY": 258.4102, "EPHEMERIS_TYPE": 0, "CLASSIFICATION_TYPE": "U", "NORAD_CAT_ID": 60182, "ELEMENT_SET_NO": 999, "REV_AT_EPOCH": 7917, "BSTAR": 0.00021979897, "MEAN_MOTION_DOT": 1.59e-05, "MEAN_MOTION_DDOT": 0}, "tle": {"line1": "1 60182U 24123A   25352.57880384  .00001590  00000+0  21980-3 0  9996", "line2": "2 60182  97.9224  87.3427 0001380 101.7265 258.4102 14.79470622 79175"}}, "geometry": {"type": "Point", "coordinates": [88.77358372850271, -7.371923892183475]}}, {"type": "Feature", "properties": {"norad_id": 60452, "name": "LEGION 3", "group": "resource", "lat": 2.8157248655530016, "lon": 93.83887157791558, "alt_km": 512.1985682983468, "timestamp": "2025-12-18T23:35:48.705128+00:00", "meta": {"OBJECT_NAME": "LEGION 3", "OBJECT_ID": "2024-146A", "EPOCH": "2025-12-18T11:45:05.435136", "MEAN_MOTION": 15.1582173, "ECCENTRICITY": 0.00155276, "INCLINATION": 45.0024, "RA_OF_ASC_NODE": 279.3071, "ARG_OF_PERICENTER": 229.7713, "MEAN_ANOMALY": 130.1807, "EPHEMERIS_TYPE": 0, "CLASSIFICATION_TYPE": "U", "NORAD_CAT_ID": 60452, "ELEMENT_SET_NO": 999, "REV_AT_EPOCH": 7460, "BSTAR": 0.00021704005, "MEAN_MOTION_DOT": 3.965e-05, "MEAN_MOTION_DDOT": 0}, "tle": {"line1": "1 60452U 24146A   25352.48964624  .00003965  00000+0  21704-3 0  9993", "line2": "2 60452  45.0024 279.3071 0015527 229.7713 130.1807 15.15821730 74604"}}, "geometry": {"type": "Point", "coordinates": [93.83887157791558, 2.8157248655530016]}}, {"type": "Feature", "properties": {"norad_id": 60453, "name": "LEGION 4", "group": "resource", "lat": 4.04216160735882, "lon": -175.61962201911172, "alt_km": 523.8244250899525, "timestamp": "2025-12-18T23:35:48.705139+00:00", "meta": {"OBJECT_NAME": "LEGION 4", "OBJECT_ID": "2024-146B", "EPOCH": "2025-12-18T11:45:38.190240", "MEAN_MOTION": 15.15883204, "ECCENTRICITY": 0.00089502, "INCLINATION": 45.0396, "RA_OF_ASC_NODE": 11.0737, "ARG_OF_PERICENTER": 341.4316, "MEAN_ANOMALY": 18.6235, "EPHEMERIS_TYPE": 0, "CLASSIFICATION_TYPE": "U", "NORAD_CAT_ID": 60453, "ELEMENT_SET_NO": 999, "REV_AT_EPOCH": 7345, "BSTAR": 0.00020431086, "MEAN_MOTION_DOT": 3.717e-05, "MEAN_MOTION_DDOT": 0}, "tle": {"line1": "1 60453U 24146B   25352.49002535  .00003717  00000+0  20431-3 0  9990", "line2": "2 60453  45.0396  11.0737 0008950 341.4316  18.6235 15.15883204 73451"}}, "geometry": {"type": "Point", "coordinates": [-175.61962201911172, 4.04216160735882]}}]}